[{"OBJECT_NAME":"STARLINK-30770","OBJECT_ID":"2023-162Q","EPOCH":"2026-03-09T22:00:01.999584","MEAN_MOTION":15.24100693,"ECCENTRICITY":0.0001196,"INCLINATION":43.0011,"RA_OF_ASC_NODE":131.178,"ARG_OF_PERICENTER":269.1911,"MEAN_ANOMALY":28.4248,"EPHEMERIS_TYPE":0,"CLASSIFICATION_TYPE":"U","NORAD_CAT_ID":58132,"ELEMENT_SET_NO":999,"REV_AT_EPOCH":572,"BSTAR":0.047198157,"MEAN_MOTION_DOT":0.0128197,"MEAN_MOTION_DDOT":0},{"OBJECT_NAME":"CZ-4C R\/B","OBJECT_ID":"2018-031F","EPOCH":"2026-03-09T18:17:36.260736","MEAN_MOTION":15.22605712,"ECCENTRICITY":0.00804945,"INCLINATION":98.1311,"RA_OF_ASC_NODE":341.6719,"ARG_OF_PERICENTER":21.712,"MEAN_ANOMALY":338.7495,"EPHEMERIS_TYPE":0,"CLASSIFICATION_TYPE":"U","NORAD_CAT_ID":43264,"ELEMENT_SET_NO":999,"REV_AT_EPOCH":43612,"BSTAR":0.00044368098,"MEAN_MOTION_DOT":0.00011203,"MEAN_MOTION_DDOT":0}]
